OBJECT_NAME,OBJECT_ID,EPOCH,MEAN_MOTION,ECCENTRICITY,INCLINATION,RA_OF_ASC_NODE,ARG_OF_PERICENTER,MEAN_ANOMALY,EPHEMERIS_TYPE,CLASSIFICATION_TYPE,NORAD_CAT_ID,ELEMENT_SET_NO,REV_AT_EPOCH,BSTAR,MEAN_MOTION_DOT,MEAN_MOTION_DDOT
SWARM B,2013-067A,2026-06-30T21:09:27.651456,15.28635867,.0002863,87.7447,338.1552,79.9488,280.2084,0,U,39451,999,68533,.13264971E-3,.3726E-4,0
SWARM A,2013-067B,2026-06-30T21:32:05.068032,15.51210670,.00031977,87.3310,51.1466,97.3972,262.7653,0,U,39452,999,70837,.18891403E-3,.11086E-3,0
SWARM C,2013-067C,2026-06-30T21:31:56.348544,15.51209692,.00031932,87.3309,49.7275,97.1607,263.0017,0,U,39453,999,70833,.19231446E-3,.11285E-3,0
BRITE-CA1 (TORONTO),2014-033L,2026-06-30T08:31:01.000416,14.72697519,.00774864,97.9755,310.0412,234.1487,125.2508,0,U,40020,999,64415,.1483446E-3,.937E-5,0
OCO 2,2014-035A,2026-06-30T21:20:39.627456,14.57122312,.00014925,98.2020,122.9739,82.7125,277.4243,0,U,40059,999,63804,.10389558E-3,.423E-5,0
BRITE-PL2 (HEWELIUSZ),2014-049B,2026-06-30T07:03:37.013760,14.94640537,.00151828,97.9110,293.3961,68.3877,291.8959,0,U,40119,999,64340,.14407238E-3,.1504E-4,0
MMS 1,2015-011A,2026-07-01T00:00:00.999648,0.28326042,.83149282,72.2431,348.6471,167.5905,268.0622,0,U,40482,999,139,0,-.983E-5,0
MMS 2,2015-011B,2026-07-01T00:00:00.999648,0.28326017,.83177363,72.2467,348.6461,167.5937,268.0522,0,U,40483,999,139,0,-.984E-5,0
MMS 3,2015-011C,2026-07-01T00:00:00.999648,0.28326054,.8316102,72.2466,348.6579,167.6012,268.0260,0,U,40484,999,139,0,-.983E-5,0
MMS 4,2015-011D,2026-07-01T00:00:00.999648,0.28330340,.83159556,72.2429,348.6413,167.6143,268.0044,0,U,40485,999,139,0,-.983E-5,0
ASTROSAT,2015-052A,2026-06-30T22:47:33.942624,14.82530761,.0008475,5.9976,56.2775,234.2520,125.6820,0,U,40930,999,58187,.12133957E-3,.167E-4,0
DAMPE,2015-078A,2026-06-30T23:03:42.119424,15.30818834,.00130651,97.4553,187.4954,34.1414,326.0664,0,U,41173,999,58665,.28893619E-4,.784E-5,0
PISAT,2016-059B,2026-06-30T23:18:48.464928,14.69007442,.00295551,97.8181,181.8319,158.6922,201.5522,0,U,41784,999,52176,.18071205E-3,.1019E-4,0
HXMT (HUIYAN),2017-034A,2026-06-30T22:44:19.305888,15.18575174,.00326043,43.0145,106.4142,233.9862,125.7963,0,U,42758,999,49975,.21429948E-3,.4329E-4,0
FLYING LAPTOP,2017-042G,2026-06-30T23:35:54.863232,15.01232095,.00199805,97.4746,336.9901,77.4515,282.8943,0,U,42831,999,48852,.24545173E-3,.3107E-4,0
ZHANGHENG 1-01 (CSES-1),2018-015C,2026-06-30T22:55:51.511584,15.20988663,.00176329,97.6878,347.8880,215.5359,144.4703,0,U,43194,999,46673,.36725096E-3,.8103E-4,0
SALSAT,2020-068K,2026-06-30T11:43:12.412704,15.29983096,.0007929,97.8843,185.3641,251.0233,109.0147,0,U,46495,999,31739,.26165469E-3,.7517E-4,0
IXPE,2021-121A,2026-07-01T00:00:00.999648,15.10375867,.00072892,0.2285,213.3982,289.3234,95.3897,0,U,49954,999,570,.74191974E-3,.13499E-3,0
SMILE,2026-109A,2026-06-07T09:11:54.544416,7.54049028,.3310191,69.9787,209.3069,288.5544,45.7342,0,U,69123,999,248,-.36778157E-3,-.41E-6,0
