SWARM B                 
1 39451U 13067A   26181.88157004  .00003726  00000+0  13265-3 0  9997
2 39451  87.7447 338.1552 0002863  79.9488 280.2084 15.28635867685332
SWARM A                 
1 39452U 13067B   26181.89728088  .00011086  00000+0  18891-3 0  9993
2 39452  87.3310  51.1466 0003197  97.3972 262.7653 15.51210670708371
SWARM C                 
1 39453U 13067C   26181.89717996  .00011285  00000+0  19231-3 0  9990
2 39453  87.3309  49.7275 0003193  97.1607 263.0017 15.51209692708336
BRITE-CA1 (TORONTO)     
1 40020U 14033L   26181.35487269  .00000937  00000+0  14834-3 0  9990
2 40020  97.9755 310.0412 0077486 234.1487 125.2508 14.72697519644156
OCO 2                   
1 40059U 14035A   26181.88934754  .00000423  00000+0  10390-3 0  9991
2 40059  98.2020 122.9739 0001492  82.7125 277.4243 14.57122312638043
BRITE-PL2 (HEWELIUSZ)   
1 40119U 14049B   26181.29417840  .00001504  00000+0  14407-3 0  9994
2 40119  97.9110 293.3961 0015182  68.3877 291.8959 14.94640537643406
MMS 1                   
1 40482U 15011A   26182.00001157 -.00000983  00000+0  00000+0 0  9998
2 40482  72.2431 348.6471 8314928 167.5905 268.0622  0.28326042  1396
MMS 2                   
1 40483U 15011B   26182.00001157 -.00000984  00000+0  00000+0 0  9990
2 40483  72.2467 348.6461 8317736 167.5937 268.0522  0.28326017  1391
MMS 3                   
1 40484U 15011C   26182.00001157 -.00000983  00000+0  00000+0 0  9990
2 40484  72.2466 348.6579 8316102 167.6012 268.0260  0.28326054  1392
MMS 4                   
1 40485U 15011D   26182.00001157 -.00000983  00000+0  00000+0 0  9991
2 40485  72.2429 348.6413 8315955 167.6143 268.0044  0.28330340  1392
ASTROSAT                
1 40930U 15052A   26181.94969841  .00001670  00000+0  12134-3 0  9994
2 40930   5.9976  56.2775 0008475 234.2520 125.6820 14.82530761581878
DAMPE                   
1 41173U 15078A   26181.96090416  .00000784  00000+0  28894-4 0  9993
2 41173  97.4553 187.4954 0013065  34.1414 326.0664 15.30818834586659
PISAT                   
1 41784U 16059B   26181.97139427  .00001019  00000+0  18071-3 0  9995
2 41784  97.8181 181.8319 0029555 158.6922 201.5522 14.69007442521765
HXMT (HUIYAN)           
1 42758U 17034A   26181.94744567  .00004329  00000+0  21430-3 0  9995
2 42758  43.0145 106.4142 0032604 233.9862 125.7963 15.18575174499752
FLYING LAPTOP           
1 42831U 17042G   26181.98327388  .00003107  00000+0  24545-3 0  9991
2 42831  97.4746 336.9901 0019980  77.4515 282.8943 15.01232095488525
ZHANGHENG 1-01 (CSES-1) 
1 43194U 18015C   26181.95545731  .00008103  00000+0  36725-3 0  9990
2 43194  97.6878 347.8880 0017632 215.5359 144.4703 15.20988663466732
SALSAT                  
1 46495U 20068K   26181.48833811  .00007517  00000+0  26165-3 0  9990
2 46495  97.8843 185.3641 0007929 251.0233 109.0147 15.29983096317397
IXPE                    
1 49954U 21121A   26182.00001157  .00013499  00000+0  74192-3 0  9992
2 49954   0.2285 213.3982 0007289 289.3234  95.3897 15.10375867  5701
SMILE                   
1 69123U 26109A   26158.38327019 -.00000041  00000+0 -36778-3 0  9994
2 69123  69.9787 209.3069 3310191 288.5544  45.7342  7.54049028  2480
